CTC2_L_00257001-01
1 89388U 25769SN  26037.47792824  .00000000  00000+0  00000-0 0  9995
2 89388  85.0000   0.0000 0000000   0.0000   0.0000 14.06899548    16
CTC2_L_00257001-02
1 89389U 22652XZ  26037.47792824  .00000000  00000+0  00000-0 0  9994
2 89389  85.0000   0.0000 0000000   0.0000  90.0000 14.06899548    16
CTC2_L_00257001-03
1 89390U 23283GD  26037.47792824  .00000000  00000+0  00000-0 0  9997
2 89390  85.0000   0.0000 0000000   0.0000 180.0000 14.06899548    18
CTC2_L_00257001-04
1 89391U 23673WB  26037.47792824  .00000000  00000+0  00000-0 0  9991
2 89391  85.0000   0.0000 0000000   0.0000 270.0000 14.06899548    19
CTC2_L_00257002-01
1 89392U 22584KQ  26037.47792824  .00000000  00000+0  00000-0 0  9992
2 89392  85.0000  12.0000 0000000   0.0000  12.0000 14.06899548    17
CTC2_L_00257002-02
1 89393U 25947RN  26037.47792824  .00000000  00000+0  00000-0 0  9999
2 89393  85.0000  12.0000 0000000   0.0000 102.0000 14.06899548    18
CTC2_L_00257002-03
1 89394U 22721LQ  26037.47792824  .00000000  00000+0  00000-0 0  9997
2 89394  85.0000  12.0000 0000000   0.0000 192.0000 14.06899548    18
CTC2_L_00257002-04
1 89395U 23080LV  26037.47792824  .00000000  00000+0  00000-0 0  9997
2 89395  85.0000  12.0000 0000000   0.0000 282.0000 14.06899548    19
CTC2_L_00257003-01
1 89396U 26047EO  26037.47792824  .00000000  00000+0  00000-0 0  9994
2 89396  85.0000  24.0000 0000000   0.0000  24.0000 14.06899548    17
CTC2_L_00257003-02
1 89397U 23192O   26037.47792824  .00000000  00000+0  00000-0 0  9993
2 89397  85.0000  24.0000 0000000   0.0000 114.0000 14.06899548    18
CTC2_L_00257003-03
1 89398U 25167FF  26037.47792824  .00000000  00000+0  00000-0 0  9998
2 89398  85.0000  24.0000 0000000   0.0000 204.0000 14.06899548    19
CTC2_L_00257003-04
1 89399U 25711QN  26037.47792824  .00000000  00000+0  00000-0 0  9994
2 89399  85.0000  24.0000 0000000   0.0000 294.0000 14.06899548    19
CTC2_L_00257004-01
1 89400U 22198TI  26037.47792824  .00000000  00000+0  00000-0 0  9993
2 89400  85.0000  36.0000 0000000   0.0000  36.0000 14.06899548    19
CTC2_L_00257004-02
1 89401U 24992UW  26037.47792824  .00000000  00000+0  00000-0 0  9998
2 89401  85.0000  36.0000 0000000   0.0000 126.0000 14.06899548    10
CTC2_L_00257004-03
1 89402U 26529VZ  26037.47792824  .00000000  00000+0  00000-0 0  9997
2 89402  85.0000  36.0000 0000000   0.0000 216.0000 14.06899548    11
CTC2_L_00257004-04
1 89403U 22295A   26037.47792824  .00000000  00000+0  00000-0 0  9994
2 89403  85.0000  36.0000 0000000   0.0000 306.0000 14.06899548    12
CTC2_L_00257005-01
1 89404U 22182YT  26037.47792824  .00000000  00000+0  00000-0 0  9990
2 89404  85.0000  48.0000 0000000   0.0000  48.0000 14.06899548    19
CTC2_L_00257005-02
1 89405U 26810SU  26037.47792824  .00000000  00000+0  00000-0 0  9993
2 89405  85.0000  48.0000 0000000   0.0000 138.0000 14.06899548    10
CTC2_L_00257005-03
1 89406U 26489HH  26037.47792824  .00000000  00000+0  00000-0 0  9996
2 89406  85.0000  48.0000 0000000   0.0000 228.0000 14.06899548    11
CTC2_L_00257005-04
1 89407U 22617YG  26037.47792824  .00000000  00000+0  00000-0 0  9996
2 89407  85.0000  48.0000 0000000   0.0000 318.0000 14.06899548    12
CTC2_L_00257006-01
1 89408U 22059GD  26037.47792824  .00000000  00000+0  00000-0 0  9997
2 89408  85.0000  60.0000 0000000   0.0000  60.0000 14.06899548    11
CTC2_L_00257006-02
1 89409U 24104DV  26037.47792824  .00000000  00000+0  00000-0 0  9991
2 89409  85.0000  60.0000 0000000   0.0000 150.0000 14.06899548    12
CTC2_L_00257006-03
1 89410U 25551GV  26037.47792824  .00000000  00000+0  00000-0 0  9990
2 89410  85.0000  60.0000 0000000   0.0000 240.0000 14.06899548    14
CTC2_L_00257006-04
1 89411U 24755AS  26037.47792824  .00000000  00000+0  00000-0 0  9996
2 89411  85.0000  60.0000 0000000   0.0000 330.0000 14.06899548    15
CTC2_L_00257007-01
1 89412U 25095GU  26037.47792824  .00000000  00000+0  00000-0 0  9995
2 89412  85.0000  72.0000 0000000   0.0000  72.0000 14.06899548    12
CTC2_L_00257007-02
1 89413U 26452OZ  26037.47792824  .00000000  00000+0  00000-0 0  9994
2 89413  85.0000  72.0000 0000000   0.0000 162.0000 14.06899548    13
CTC2_L_00257007-03
1 89414U 26189RE  26037.47792824  .00000000  00000+0  00000-0 0  9992
2 89414  85.0000  72.0000 0000000   0.0000 252.0000 14.06899548    14
CTC2_L_00257007-04
1 89415U 25129YP  26037.47792824  .00000000  00000+0  00000-0 0  9996
2 89415  85.0000  72.0000 0000000   0.0000 342.0000 14.06899548    15
CTC2_L_00257008-01
1 89416U 22393Z   26037.47792824  .00000000  00000+0  00000-0 0  9997
2 89416  85.0000  84.0000 0000000   0.0000  84.0000 14.06899548    12
CTC2_L_00257008-02
1 89417U 22532HC  26037.47792824  .00000000  00000+0  00000-0 0  9993
2 89417  85.0000  84.0000 0000000   0.0000 174.0000 14.06899548    13
CTC2_L_00257008-03
1 89418U 26072OJ  26037.47792824  .00000000  00000+0  00000-0 0  9997
2 89418  85.0000  84.0000 0000000   0.0000 264.0000 14.06899548    14
CTC2_L_00257008-04
1 89419U 26671UF  26037.47792824  .00000000  00000+0  00000-0 0  9993
2 89419  85.0000  84.0000 0000000   0.0000 354.0000 14.06899548    15
CTC2_L_00257009-01
1 89420U 22265GB  26037.47792824  .00000000  00000+0  00000-0 0  9990
2 89420  85.0000  96.0000 0000000   0.0000  96.0000 14.06899548    13
CTC2_L_00257009-02
1 89421U 22440QZ  26037.47792824  .00000000  00000+0  00000-0 0  9996
2 89421  85.0000  96.0000 0000000   0.0000 186.0000 14.06899548    14
CTC2_L_00257009-03
1 89422U 22427WD  26037.47792824  .00000000  00000+0  00000-0 0  9992
2 89422  85.0000  96.0000 0000000   0.0000 276.0000 14.06899548    15
CTC2_L_00257009-04
1 89423U 25124HI  26037.47792824  .00000000  00000+0  00000-0 0  9990
2 89423  85.0000  96.0000 0000000   0.0000   6.0000 14.06899548    17
CTC2_L_00257010-01
1 89424U 25259FE  26037.47792824  .00000000  00000+0  00000-0 0  9990
2 89424  85.0000 108.0000 0000000   0.0000 108.0000 14.06899548    15
CTC2_L_00257010-02
1 89425U 26348J   26037.47792824  .00000000  00000+0  00000-0 0  9991
2 89425  85.0000 108.0000 0000000   0.0000 198.0000 14.06899548    15
CTC2_L_00257010-03
1 89426U 22813JH  26037.47792824  .00000000  00000+0  00000-0 0  9995
2 89426  85.0000 108.0000 0000000   0.0000 288.0000 14.06899548    16
CTC2_L_00257010-04
1 89427U 24616LK  26037.47792824  .00000000  00000+0  00000-0 0  9999
2 89427  85.0000 108.0000 0000000   0.0000  18.0000 14.06899548    18
CTC2_L_00257011-01
1 89428U 24089MD  26037.47792824  .00000000  00000+0  00000-0 0  9994
2 89428  85.0000 120.0000 0000000   0.0000 120.0000 14.06899548    17
CTC2_L_00257011-02
1 89429U 23756TO  26037.47792824  .00000000  00000+0  00000-0 0  9995
2 89429  85.0000 120.0000 0000000   0.0000 210.0000 14.06899548    18
CTC2_L_00257011-03
1 89430U 22889E   26037.47792824  .00000000  00000+0  00000-0 0  9993
2 89430  85.0000 120.0000 0000000   0.0000 300.0000 14.06899548    10
CTC2_L_00257011-04
1 89431U 23410ZP  26037.47792824  .00000000  00000+0  00000-0 0  9995
2 89431  85.0000 120.0000 0000000   0.0000  30.0000 14.06899548    11
CTC2_L_00257012-01
1 89432U 22753JD  26037.47792824  .00000000  00000+0  00000-0 0  9995
2 89432  85.0000 132.0000 0000000   0.0000 132.0000 14.06899548    18
CTC2_L_00257012-02
1 89433U 22005DR  26037.47792824  .00000000  00000+0  00000-0 0  9996
2 89433  85.0000 132.0000 0000000   0.0000 222.0000 14.06899548    19
CTC2_L_00257012-03
1 89434U 25406MO  26037.47792824  .00000000  00000+0  00000-0 0  9995
2 89434  85.0000 132.0000 0000000   0.0000 312.0000 14.06899548    10
CTC2_L_00257012-04
1 89435U 22085OY  26037.47792824  .00000000  00000+0  00000-0 0  9996
2 89435  85.0000 132.0000 0000000   0.0000  42.0000 14.06899548    11
CTC2_L_00257013-01
1 89436U 22468IJ  26037.47792824  .00000000  00000+0  00000-0 0  9992
2 89436  85.0000 144.0000 0000000   0.0000 144.0000 14.06899548    18
CTC2_L_00257013-02
1 89437U 23244QB  26037.47792824  .00000000  00000+0  00000-0 0  9996
2 89437  85.0000 144.0000 0000000   0.0000 234.0000 14.06899548    19
CTC2_L_00257013-03
1 89438U 23671YP  26037.47792824  .00000000  00000+0  00000-0 0  9991
2 89438  85.0000 144.0000 0000000   0.0000 324.0000 14.06899548    10
CTC2_L_00257013-04
1 89439U 25255DG  26037.47792824  .00000000  00000+0  00000-0 0  9992
2 89439  85.0000 144.0000 0000000   0.0000  54.0000 14.06899548    11
CTC2_L_00257014-01
1 89440U 24021VU  26037.47792824  .00000000  00000+0  00000-0 0  9994
2 89440  85.0000 156.0000 0000000   0.0000 156.0000 14.06899548    19
CTC2_L_00257014-02
1 89441U 22278CK  26037.47792824  .00000000  00000+0  00000-0 0  9997
2 89441  85.0000 156.0000 0000000   0.0000 246.0000 14.06899548    10
CTC2_L_00257014-03
1 89442U 24785QV  26037.47792824  .00000000  00000+0  00000-0 0  9993
2 89442  85.0000 156.0000 0000000   0.0000 336.0000 14.06899548    11
CTC2_L_00257014-04
1 89443U 24518SY  26037.47792824  .00000000  00000+0  00000-0 0  9998
2 89443  85.0000 156.0000 0000000   0.0000  66.0000 14.06899548    12
CTC2_L_00257015-01
1 89444U 23019KA  26037.47792824  .00000000  00000+0  00000-0 0  9994
2 89444  85.0000 168.0000 0000000   0.0000 168.0000 14.06899548    19
CTC2_L_00257015-02
1 89445U 25540NV  26037.47792824  .00000000  00000+0  00000-0 0  9996
2 89445  85.0000 168.0000 0000000   0.0000 258.0000 14.06899548    10
CTC2_L_00257015-03
1 89446U 25573DZ  26037.47792824  .00000000  00000+0  00000-0 0  9993
2 89446  85.0000 168.0000 0000000   0.0000 348.0000 14.06899548    11
CTC2_L_00257015-04
1 89447U 23480II  26037.47792824  .00000000  00000+0  00000-0 0  9999
2 89447  85.0000 168.0000 0000000   0.0000  78.0000 14.06899548    12
CTC2_L_00257016-01
1 89448U 22741VC  26037.47792824  .00000000  00000+0  00000-0 0  9999
2 89448  85.0000 180.0000 0000000   0.0000 180.0000 14.06899548    11
CTC2_L_00257016-02
1 89449U 26540FE  26037.47792824  .00000000  00000+0  00000-0 0  9991
2 89449  85.0000 180.0000 0000000   0.0000 270.0000 14.06899548    12
